CCSDS_OMM_VERS = 2.0
CREATION_DATE  = 
ORIGINATOR     = 

OBJECT_NAME    = STARLINK-35806
OBJECT_ID      = 2025-254R
CENTER_NAME    = EARTH
REF_FRAME      = TEME
TIME_SYSTEM    = UTC
MEAN_ELEMENT_THEORY = SGP/SGP4

EPOCH          = 2025-12-03T12:00:02.998944
MEAN_MOTION    = 15.63069742
ECCENTRICITY   = .0001344
INCLINATION    = 53.1592
RA_OF_ASC_NODE = 320.8788
ARG_OF_PERICENTER = 66.2578
MEAN_ANOMALY   = 7.7422

EPHEMERIS_TYPE = 0
CLASSIFICATION_TYPE = U
NORAD_CAT_ID   = 66363
ELEMENT_SET_NO = 999
REV_AT_EPOCH   = 540
BSTAR          = -.25041E-1
MEAN_MOTION_DOT = -.2035922E-1
MEAN_MOTION_DDOT = 0

CCSDS_OMM_VERS = 2.0
CREATION_DATE  = 
ORIGINATOR     = 

OBJECT_NAME    = STARLINK-35797
OBJECT_ID      = 2025-254S
CENTER_NAME    = EARTH
REF_FRAME      = TEME
TIME_SYSTEM    = UTC
MEAN_ELEMENT_THEORY = SGP/SGP4

EPOCH          = 2025-12-03T12:00:02.998944
MEAN_MOTION    = 15.63074330
ECCENTRICITY   = .0001283
INCLINATION    = 53.1590
RA_OF_ASC_NODE = 320.8708
ARG_OF_PERICENTER = 69.1861
MEAN_ANOMALY   = 8.6463

EPHEMERIS_TYPE = 0
CLASSIFICATION_TYPE = U
NORAD_CAT_ID   = 66364
ELEMENT_SET_NO = 999
REV_AT_EPOCH   = 543
BSTAR          = -.2513E-1
MEAN_MOTION_DOT = -.2042525E-1
MEAN_MOTION_DDOT = 0

CCSDS_OMM_VERS = 2.0
CREATION_DATE  = 
ORIGINATOR     = 

OBJECT_NAME    = STARLINK-35827
OBJECT_ID      = 2025-254T
CENTER_NAME    = EARTH
REF_FRAME      = TEME
TIME_SYSTEM    = UTC
MEAN_ELEMENT_THEORY = SGP/SGP4

EPOCH          = 2025-12-03T12:00:02.998944
MEAN_MOTION    = 15.63070612
ECCENTRICITY   = .0001377
INCLINATION    = 53.1592
RA_OF_ASC_NODE = 320.8636
ARG_OF_PERICENTER = 67.2902
MEAN_ANOMALY   = 14.3772

EPHEMERIS_TYPE = 0
CLASSIFICATION_TYPE = U
NORAD_CAT_ID   = 66365
ELEMENT_SET_NO = 999
REV_AT_EPOCH   = 540
BSTAR          = -.25067E-1
MEAN_MOTION_DOT = -.2037861E-1
MEAN_MOTION_DDOT = 0

CCSDS_OMM_VERS = 2.0
CREATION_DATE  = 
ORIGINATOR     = 

OBJECT_NAME    = STARLINK-35845
OBJECT_ID      = 2025-254U
CENTER_NAME    = EARTH
REF_FRAME      = TEME
TIME_SYSTEM    = UTC
MEAN_ELEMENT_THEORY = SGP/SGP4

EPOCH          = 2025-12-03T12:00:02.998944
MEAN_MOTION    = 15.62897014
ECCENTRICITY   = .0001405
INCLINATION    = 53.1591
RA_OF_ASC_NODE = 320.8663
ARG_OF_PERICENTER = 47.7152
MEAN_ANOMALY   = 32.1751

EPHEMERIS_TYPE = 0
CLASSIFICATION_TYPE = U
NORAD_CAT_ID   = 66366
ELEMENT_SET_NO = 999
REV_AT_EPOCH   = 543
BSTAR          = -.2292E-1
MEAN_MOTION_DOT = -.187199E-1
MEAN_MOTION_DDOT = 0

CCSDS_OMM_VERS = 2.0
CREATION_DATE  = 
ORIGINATOR     = 

OBJECT_NAME    = STARLINK-35846
OBJECT_ID      = 2025-254V
CENTER_NAME    = EARTH
REF_FRAME      = TEME
TIME_SYSTEM    = UTC
MEAN_ELEMENT_THEORY = SGP/SGP4

EPOCH          = 2025-12-03T12:00:02.998944
MEAN_MOTION    = 15.63074727
ECCENTRICITY   = .0001412
INCLINATION    = 53.1591
RA_OF_ASC_NODE = 320.8578
ARG_OF_PERICENTER = 64.9432
MEAN_ANOMALY   = 18.6416

EPHEMERIS_TYPE = 0
CLASSIFICATION_TYPE = U
NORAD_CAT_ID   = 66367
ELEMENT_SET_NO = 999
REV_AT_EPOCH   = 538
BSTAR          = -.2517E-1
MEAN_MOTION_DOT = -.2045514E-1
MEAN_MOTION_DDOT = 0

CCSDS_OMM_VERS = 2.0
CREATION_DATE  = 
ORIGINATOR     = 

OBJECT_NAME    = STARLINK-34861
OBJECT_ID      = 2025-254W
CENTER_NAME    = EARTH
REF_FRAME      = TEME
TIME_SYSTEM    = UTC
MEAN_ELEMENT_THEORY = SGP/SGP4

EPOCH          = 2025-12-03T09:53:29.397120
MEAN_MOTION    = 15.74279203
ECCENTRICITY   = .0001076
INCLINATION    = 53.1569
RA_OF_ASC_NODE = 321.1807
ARG_OF_PERICENTER = 102.8835
MEAN_ANOMALY   = 257.2305

EPHEMERIS_TYPE = 0
CLASSIFICATION_TYPE = U
NORAD_CAT_ID   = 66368
ELEMENT_SET_NO = 999
REV_AT_EPOCH   = 421
BSTAR          = .1655E-2
MEAN_MOTION_DOT = .250049E-2
MEAN_MOTION_DDOT = 0

CCSDS_OMM_VERS = 2.0
CREATION_DATE  = 
ORIGINATOR     = 

OBJECT_NAME    = STARLINK-35795
OBJECT_ID      = 2025-254X
CENTER_NAME    = EARTH
REF_FRAME      = TEME
TIME_SYSTEM    = UTC
MEAN_ELEMENT_THEORY = SGP/SGP4

EPOCH          = 2025-12-03T09:53:58.867296
MEAN_MOTION    = 15.74230226
ECCENTRICITY   = .0001496
INCLINATION    = 53.1572
RA_OF_ASC_NODE = 321.1826
ARG_OF_PERICENTER = 101.4233
MEAN_ANOMALY   = 258.6955

EPHEMERIS_TYPE = 0
CLASSIFICATION_TYPE = U
NORAD_CAT_ID   = 66369
ELEMENT_SET_NO = 999
REV_AT_EPOCH   = 421
BSTAR          = .85562E-3
MEAN_MOTION_DOT = .126807E-2
MEAN_MOTION_DDOT = 0

CCSDS_OMM_VERS = 2.0
CREATION_DATE  = 
ORIGINATOR     = 

OBJECT_NAME    = STARLINK-35824
OBJECT_ID      = 2025-254Y
CENTER_NAME    = EARTH
REF_FRAME      = TEME
TIME_SYSTEM    = UTC
MEAN_ELEMENT_THEORY = SGP/SGP4

EPOCH          = 2025-12-03T09:53:00.237984
MEAN_MOTION    = 15.74274201
ECCENTRICITY   = .0001247
INCLINATION    = 53.1570
RA_OF_ASC_NODE = 321.1789
ARG_OF_PERICENTER = 120.0487
MEAN_ANOMALY   = 240.0656

EPHEMERIS_TYPE = 0
CLASSIFICATION_TYPE = U
NORAD_CAT_ID   = 66370
ELEMENT_SET_NO = 999
REV_AT_EPOCH   = 421
BSTAR          = .16348E-2
MEAN_MOTION_DOT = .246849E-2
MEAN_MOTION_DDOT = 0

CCSDS_OMM_VERS = 2.0
CREATION_DATE  = 
ORIGINATOR     = 

OBJECT_NAME    = STARLINK-35804
OBJECT_ID      = 2025-254Z
CENTER_NAME    = EARTH
REF_FRAME      = TEME
TIME_SYSTEM    = UTC
MEAN_ELEMENT_THEORY = SGP/SGP4

EPOCH          = 2025-12-03T09:52:01.901568
MEAN_MOTION    = 15.74274103
ECCENTRICITY   = .0001365
INCLINATION    = 53.1568
RA_OF_ASC_NODE = 321.1736
ARG_OF_PERICENTER = 90.8808
MEAN_ANOMALY   = 269.2368

EPHEMERIS_TYPE = 0
CLASSIFICATION_TYPE = U
NORAD_CAT_ID   = 66371
ELEMENT_SET_NO = 999
REV_AT_EPOCH   = 421
BSTAR          = .16754E-2
MEAN_MOTION_DOT = .253185E-2
MEAN_MOTION_DDOT = 0

CCSDS_OMM_VERS = 2.0
CREATION_DATE  = 
ORIGINATOR     = 

OBJECT_NAME    = STARLINK-35821
OBJECT_ID      = 2025-254AA
CENTER_NAME    = EARTH
REF_FRAME      = TEME
TIME_SYSTEM    = UTC
MEAN_ELEMENT_THEORY = SGP/SGP4

EPOCH          = 2025-12-03T09:52:31.292256
MEAN_MOTION    = 15.74238222
ECCENTRICITY   = .0001585
INCLINATION    = 53.1572
RA_OF_ASC_NODE = 321.1770
ARG_OF_PERICENTER = 85.0456
MEAN_ANOMALY   = 275.0745

EPHEMERIS_TYPE = 0
CLASSIFICATION_TYPE = U
NORAD_CAT_ID   = 66372
ELEMENT_SET_NO = 999
REV_AT_EPOCH   = 421
BSTAR          = .10592E-2
MEAN_MOTION_DOT = .157762E-2
MEAN_MOTION_DDOT = 0

CCSDS_OMM_VERS = 2.0
CREATION_DATE  = 
ORIGINATOR     = 

OBJECT_NAME    = STARLINK-35809
OBJECT_ID      = 2025-254AB
CENTER_NAME    = EARTH
REF_FRAME      = TEME
TIME_SYSTEM    = UTC
MEAN_ELEMENT_THEORY = SGP/SGP4

EPOCH          = 2025-12-03T09:51:32.798592
MEAN_MOTION    = 15.74241953
ECCENTRICITY   = .0001457
INCLINATION    = 53.1571
RA_OF_ASC_NODE = 321.1711
ARG_OF_PERICENTER = 100.0796
MEAN_ANOMALY   = 260.0388

EPHEMERIS_TYPE = 0
CLASSIFICATION_TYPE = U
NORAD_CAT_ID   = 66373
ELEMENT_SET_NO = 999
REV_AT_EPOCH   = 421
BSTAR          = .12282E-2
MEAN_MOTION_DOT = .183632E-2
MEAN_MOTION_DDOT = 0

CCSDS_OMM_VERS = 2.0
CREATION_DATE  = 
ORIGINATOR     = 

OBJECT_NAME    = STARLINK-35831
OBJECT_ID      = 2025-254AC
CENTER_NAME    = EARTH
REF_FRAME      = TEME
TIME_SYSTEM    = UTC
MEAN_ELEMENT_THEORY = SGP/SGP4

EPOCH          = 2025-12-03T09:51:03.706848
MEAN_MOTION    = 15.74248824
ECCENTRICITY   = .000176
INCLINATION    = 53.1571
RA_OF_ASC_NODE = 321.1689
ARG_OF_PERICENTER = 85.5161
MEAN_ANOMALY   = 274.6060

EPHEMERIS_TYPE = 0
CLASSIFICATION_TYPE = U
NORAD_CAT_ID   = 66374
ELEMENT_SET_NO = 999
REV_AT_EPOCH   = 421
BSTAR          = .12684E-2
MEAN_MOTION_DOT = .189875E-2
MEAN_MOTION_DDOT = 0

