STARLINK-35806          
1 66363U 25254R   25337.50003471 -.02035922  00000+0 -25041-1 0  9999
2 66363  53.1592 320.8788 0001344  66.2578   7.7422 15.63069742  5407
STARLINK-35797          
1 66364U 25254S   25337.50003471 -.02042525  00000+0 -25130-1 0  9996
2 66364  53.1590 320.8708 0001283  69.1861   8.6463 15.63074330  5434
STARLINK-35827          
1 66365U 25254T   25337.50003471 -.02037861  00000+0 -25067-1 0  9993
2 66365  53.1592 320.8636 0001377  67.2902  14.3772 15.63070612  5409
STARLINK-35845          
1 66366U 25254U   25337.50003471 -.01871990  00000+0 -22920-1 0  9997
2 66366  53.1591 320.8663 0001405  47.7152  32.1751 15.62897014  5431
STARLINK-35846          
1 66367U 25254V   25337.50003471 -.02045514  00000+0 -25170-1 0  9994
2 66367  53.1591 320.8578 0001412  64.9432  18.6416 15.63074727  5387
STARLINK-34861          
1 66368U 25254W   25337.41214580  .00250049  00000+0  16550-2 0  9990
2 66368  53.1569 321.1807 0001076 102.8835 257.2305 15.74279203  4214
STARLINK-35795          
1 66369U 25254X   25337.41248689  .00126807  00000+0  85562-3 0  9992
2 66369  53.1572 321.1826 0001496 101.4233 258.6955 15.74230226  4211
STARLINK-35824          
1 66370U 25254Y   25337.41180831  .00246849  00000+0  16348-2 0  9992
2 66370  53.1570 321.1789 0001247 120.0487 240.0656 15.74274201  4215
STARLINK-35804          
1 66371U 25254Z   25337.41113312  .00253185  00000+0  16754-2 0  9995
2 66371  53.1568 321.1736 0001365  90.8808 269.2368 15.74274103  4211
STARLINK-35821          
1 66372U 25254AA  25337.41147329  .00157762  00000+0  10592-2 0  9999
2 66372  53.1572 321.1770 0001585  85.0456 275.0745 15.74238222  4210
STARLINK-35809          
1 66373U 25254AB  25337.41079628  .00183632  00000+0  12282-2 0  9999
2 66373  53.1571 321.1711 0001457 100.0796 260.0388 15.74241953  4210
STARLINK-35831          
1 66374U 25254AC  25337.41045957  .00189875  00000+0  12684-2 0  9999
2 66374  53.1571 321.1689 0001760  85.5161 274.6060 15.74248824  4217
